[{"OBJECT_NAME":"GEOSCAN 1 (RS92S1)","OBJECT_ID":"2025-155E","EPOCH":"2026-03-09T22:44:05.846496","MEAN_MOTION":15.28410635,"ECCENTRICITY":0.00087099,"INCLINATION":97.4463,"RA_OF_ASC_NODE":37.403,"ARG_OF_PERICENTER":153.6429,"MEAN_ANOMALY":206.5255,"EPHEMERIS_TYPE":0,"CLASSIFICATION_TYPE":"U","NORAD_CAT_ID":64880,"ELEMENT_SET_NO":999,"REV_AT_EPOCH":6560,"BSTAR":0.00054367431,"MEAN_MOTION_DOT":0.00014993,"MEAN_MOTION_DDOT":0},{"OBJECT_NAME":"STARLINK-35431","OBJECT_ID":"2025-232AB","EPOCH":"2026-03-09T08:48:24.327936","MEAN_MOTION":15.30199693,"ECCENTRICITY":0.00012547,"INCLINATION":53.1592,"RA_OF_ASC_NODE":105.5703,"ARG_OF_PERICENTER":111.6918,"MEAN_ANOMALY":248.4216,"EPHEMERIS_TYPE":0,"CLASSIFICATION_TYPE":"U","NORAD_CAT_ID":66030,"ELEMENT_SET_NO":999,"REV_AT_EPOCH":2338,"BSTAR":0.0004342078,"MEAN_MOTION_DOT":0.00012522,"MEAN_MOTION_DDOT":0}]
